{
  "type": "FeatureCollection",
  "features": [
    {
      "type": "Feature",
      "properties": {
        "norad_id": 36036,
        "name": "SMOS",
        "group": "resource",
        "lat": 75.84154083723692,
        "lon": 30.993737589059933,
        "alt_km": 751.4022239948736,
        "timestamp": "2025-12-15T22:44:28.580162+00:00",
        "meta_object_name": "SMOS",
        "meta_object_id": "2009-059A",
        "meta_epoch": "2025-12-15T08:55:43.466304",
        "meta_mean_motion": 14.39743413,
        "meta_eccentricity": 0.00011,
        "meta_inclination": 98.438,
        "meta_ra_of_asc_node": 174.3815,
        "meta_arg_of_pericenter": 84.0454,
        "meta_mean_anomaly": 276.086,
        "meta_ephemeris_type": 0,
        "meta_classification_type": "U",
        "meta_norad_cat_id": 36036,
        "meta_element_set_no": 999,
        "meta_rev_at_epoch": 84700,
        "meta_bstar": 0.00013860671,
        "meta_mean_motion_dot": 3.91e-06,
        "meta_mean_motion_ddot": 0,
        "tle_line1": "1 36036U 09059A   25349.37203086  .00000391  00000+0  13861-3 0  9997",
        "tle_line2": "2 36036  98.4380 174.3815 0001100  84.0454 276.0860 14.39743413847005"
      },
      "geometry": {
        "type": "Point",
        "coordinates": [
          30.993737589059933,
          75.84154083723692
        ]
      }
    },
    {
      "type": "Feature",
      "properties": {
        "norad_id": 36110,
        "name": "YAOGAN-7",
        "group": "resource",
        "lat": 4.460052874565362,
        "lon": -128.93805980664052,
        "alt_km": 640.0327014452296,
        "timestamp": "2025-12-15T22:44:28.580173+00:00",
        "meta_object_name": "YAOGAN-7",
        "meta_object_id": "2009-069A",
        "meta_epoch": "2025-12-15T06:28:12.169920",
        "meta_mean_motion": 14.77736151,
        "meta_eccentricity": 0.00233392,
        "meta_inclination": 98.0298,
        "meta_ra_of_asc_node": 231.0175,
        "meta_arg_of_pericenter": 272.6712,
        "meta_mean_anomaly": 87.1826,
        "meta_ephemeris_type": 0,
        "meta_classification_type": "U",
        "meta_norad_cat_id": 36110,
        "meta_element_set_no": 999,
        "meta_rev_at_epoch": 86246,
        "meta_bstar": 0.00010088291,
        "meta_mean_motion_dot": 6.73e-06,
        "meta_mean_motion_ddot": 0,
        "tle_line1": "1 36110U 09069A   25349.26958530  .00000673  00000+0  10088-3 0  9991",
        "tle_line2": "2 36110  98.0298 231.0175 0023339 272.6712  87.1826 14.77736151862465"
      },
      "geometry": {
        "type": "Point",
        "coordinates": [
          -128.93805980664052,
          4.460052874565362
        ]
      }
    },
    {
      "type": "Feature",
      "properties": {
        "norad_id": 36605,
        "name": "TANDEM-X",
        "group": "resource",
        "lat": 7.316303966672909,
        "lon": -5.679635606699969,
        "alt_km": 510.03359768676273,
        "timestamp": "2025-12-15T22:44:28.580183+00:00",
        "meta_object_name": "TANDEM-X",
        "meta_object_id": "2010-030A",
        "meta_epoch": "2025-12-14T15:05:32.230464",
        "meta_mean_motion": 15.19156095,
        "meta_eccentricity": 0.00019257,
        "meta_inclination": 97.4454,
        "meta_ra_of_asc_node": 353.9828,
        "meta_arg_of_pericenter": 83.4847,
        "meta_mean_anomaly": 276.6607,
        "meta_ephemeris_type": 0,
        "meta_classification_type": "U",
        "meta_norad_cat_id": 36605,
        "meta_element_set_no": 999,
        "meta_rev_at_epoch": 85862,
        "meta_bstar": 9.6223592e-05,
        "meta_mean_motion_dot": 1.954e-05,
        "meta_mean_motion_ddot": 0,
        "tle_line1": "1 36605U 10030A   25348.62884526  .00001954  00000+0  96224-4 0  9992",
        "tle_line2": "2 36605  97.4454 353.9828 0001925  83.4847 276.6607 15.19156095858629"
      },
      "geometry": {
        "type": "Point",
        "coordinates": [
          -5.679635606699969,
          7.316303966672909
        ]
      }
    },
    {
      "type": "Feature",
      "properties": {
        "norad_id": 36795,
        "name": "CARTOSAT-2B",
        "group": "resource",
        "lat": -56.23919486027798,
        "lon": 50.684518343251945,
        "alt_km": 645.4651908397127,
        "timestamp": "2025-12-15T22:44:28.580194+00:00",
        "meta_object_name": "CARTOSAT-2B",
        "meta_object_id": "2010-035A",
        "meta_epoch": "2025-12-15T08:22:58.257696",
        "meta_mean_motion": 14.78728678,
        "meta_eccentricity": 0.00130093,
        "meta_inclination": 97.7856,
        "meta_ra_of_asc_node": 38.2949,
        "meta_arg_of_pericenter": 68.6384,
        "meta_mean_anomaly": 291.6214,
        "meta_ephemeris_type": 0,
        "meta_classification_type": "U",
        "meta_norad_cat_id": 36795,
        "meta_element_set_no": 999,
        "meta_rev_at_epoch": 83268,
        "meta_bstar": 0.00010491789,
        "meta_mean_motion_dot": 7.21e-06,
        "meta_mean_motion_ddot": 0,
        "tle_line1": "1 36795U 10035A   25349.34928539  .00000721  00000+0  10492-3 0  9993",
        "tle_line2": "2 36795  97.7856  38.2949 0013009  68.6384 291.6214 14.78728678832687"
      },
      "geometry": {
        "type": "Point",
        "coordinates": [
          50.684518343251945,
          -56.23919486027798
        ]
      }
    },
    {
      "type": "Feature",
      "properties": {
        "norad_id": 36834,
        "name": "YAOGAN-10",
        "group": "resource",
        "lat": 81.98088517170055,
        "lon": -89.33654653290722,
        "alt_km": 606.3754735912071,
        "timestamp": "2025-12-15T22:44:28.580205+00:00",
        "meta_object_name": "YAOGAN-10",
        "meta_object_id": "2010-038A",
        "meta_epoch": "2025-12-15T07:50:14.730432",
        "meta_mean_motion": 14.84619138,
        "meta_eccentricity": 0.00013749,
        "meta_inclination": 97.9146,
        "meta_ra_of_asc_node": 9.1283,
        "meta_arg_of_pericenter": 79.6895,
        "meta_mean_anomaly": 294.6116,
        "meta_ephemeris_type": 0,
        "meta_classification_type": "U",
        "meta_norad_cat_id": 36834,
        "meta_element_set_no": 999,
        "meta_rev_at_epoch": 82992,
        "meta_bstar": 0.000234582,
        "meta_mean_motion_dot": 1.928e-05,
        "meta_mean_motion_ddot": 0,
        "tle_line1": "1 36834U 10038A   25349.32655938  .00001928  00000+0  23458-3 0  9994",
        "tle_line2": "2 36834  97.9146   9.1283 0001374  79.6895 294.6116 14.84619138829928"
      },
      "geometry": {
        "type": "Point",
        "coordinates": [
          -89.33654653290722,
          81.98088517170055
        ]
      }
    },
    {
      "type": "Feature",
      "properties": {
        "norad_id": 37216,
        "name": "COSMO-SKYMED 4",
        "group": "resource",
        "lat": -13.972554276264114,
        "lon": 173.1970538459999,
        "alt_km": 627.261486543799,
        "timestamp": "2025-12-15T22:44:28.580216+00:00",
        "meta_object_name": "COSMO-SKYMED 4",
        "meta_object_id": "2010-060A",
        "meta_epoch": "2025-12-15T08:13:20.843904",
        "meta_mean_motion": 14.82150104,
        "meta_eccentricity": 0.00014047,
        "meta_inclination": 97.8807,
        "meta_ra_of_asc_node": 170.6264,
        "meta_arg_of_pericenter": 82.1807,
        "meta_mean_anomaly": 277.9566,
        "meta_ephemeris_type": 0,
        "meta_classification_type": "U",
        "meta_norad_cat_id": 37216,
        "meta_element_set_no": 999,
        "meta_rev_at_epoch": 81733,
        "meta_bstar": 0.00014766173,
        "meta_mean_motion_dot": 1.123e-05,
        "meta_mean_motion_ddot": 0,
        "tle_line1": "1 37216U 10060A   25349.34260236  .00001123  00000+0  14766-3 0  9998",
        "tle_line2": "2 37216  97.8807 170.6264 0001404  82.1807 277.9566 14.82150104817331"
      },
      "geometry": {
        "type": "Point",
        "coordinates": [
          173.1970538459999,
          -13.972554276264114
        ]
      }
    },
    {
      "type": "Feature",
      "properties": {
        "norad_id": 37387,
        "name": "RESOURCESAT-2",
        "group": "resource",
        "lat": -26.944037049748097,
        "lon": 57.99449101737835,
        "alt_km": 823.4352023911224,
        "timestamp": "2025-12-15T22:44:28.580226+00:00",
        "meta_object_name": "RESOURCESAT-2",
        "meta_object_id": "2011-015A",
        "meta_epoch": "2025-12-15T07:39:59.553792",
        "meta_mean_motion": 14.21598315,
        "meta_eccentricity": 0.0006316,
        "meta_inclination": 98.7876,
        "meta_ra_of_asc_node": 52.8597,
        "meta_arg_of_pericenter": 35.8083,
        "meta_mean_anomaly": 324.3517,
        "meta_ephemeris_type": 0,
        "meta_classification_type": "U",
        "meta_norad_cat_id": 37387,
        "meta_element_set_no": 999,
        "meta_rev_at_epoch": 76005,
        "meta_bstar": 9.0950456e-05,
        "meta_mean_motion_dot": 1.55e-06,
        "meta_mean_motion_ddot": 0,
        "tle_line1": "1 37387U 11015A   25349.31943928  .00000155  00000+0  90950-4 0  9995",
        "tle_line2": "2 37387  98.7876  52.8597 0006316  35.8083 324.3517 14.21598315760056"
      },
      "geometry": {
        "type": "Point",
        "coordinates": [
          57.99449101737835,
          -26.944037049748097
        ]
      }
    }
  ]
}